#dP2022  8  1  0  0  0.00000000      96 __u+U ITR14 FIT  IAC
## 2221  86400.00000000   900.00000000 59792 0.0000000000000
+  127   C01C02C03C04C05C06C07C08C09C10C11C12C13C14C16C19C20
+        C21C22C23C24C25C26C27C28C29C30C32C33C34C35C36C37C38
+        C39C40C41C42C43C44C45C46C59C60E01E02E03E04E05E07E08
+        E09E10E11E12E13E14E15E18E19E21E24E25E26E27E30E31E33
+        E34E36G01G02G03G04G05G06G07G08G09G10G11G12G13G14G15
+        G16G17G18G19G20G21G22G23G24G25G26G27G28G29G30G31G32
+        J02J03J07R01R02R03R04R05R06R07R08R09R10R11R12R13R14
+        R15R17R18R19R20R21R23R24  0  0  0  0  0  0  0  0  0
++        17 16 17 17 16  9  9  9  8  9  8  8  8  8  9  7  7
++         7  7  7  7  7  7  7  7  7  7  7  7  7  7  7  7  8
++         8  8  7  7  7  7  7  8 17 17  4  5  4  4  4  5  4
++         4  4  5  4  4  4  4  4  4  4  4  5  4  5  5  4  4
++         5  4  3  4  4  4  4  3  4  4  4  3  3  3  4  4  4
++         4  3  4  3  4  4  4  3  3  3  4  4  4  4  4  4  3
++         8  8 17  7  6  6  6  6 15  6  6  6 15  6  6  7  6
++         6  6  6  7  7  6 15  6  0  0  0  0  0  0  0  0  0
%c M  cc GPS ccc cccc cccc cccc cccc ccccc ccccc ccccc ccccc
%c cc cc ccc ccc cccc cccc cccc cccc ccccc ccccc ccccc ccccc
%f  0.0000000  0.000000000  0.00000000000  0.000000000000000
%f  0.0000000  0.000000000  0.00000000000  0.000000000000000
%i    0    0    0    0      0      0      0      0         0
%i    0    0    0    0      0      0      0      0         0
/* INFORMATION & ANALYSIS CENTER (IAC)            RAPID DATA
/* S/V CLOCKS ARE ALIGNED TO GNSS TIME                      
/* G:C1WC2W R:C1PC2P E:C1XC5X C:C2IC6I J:C1CC2S             
/* PCV:IGS14_2215 OL/AL:FES2004  NONE     YN ORB:CoN CLK:CoN
*  2022 08 01 18 15  0.00000000
PC01 -34362.426517  24465.860645   -681.661289    486.923436
PC02   4460.383789  41907.135651  -1075.655256   -260.693889
PC03 -14705.620744  39504.742013  -1094.897346   -455.910624
PC04 -39616.320199  14489.916775   -345.111067   -189.523172
PC05  22028.641827  35990.069314   -679.700521   -122.702475
PC06 -17790.507525  35335.089536  14257.984469    518.710164
PC07  -2740.229921  36378.877904  21307.641325   -508.037408
PC08  -8128.454607  19657.209426 -36422.584704    426.173110
PC09 -11509.911594  34143.927257  21853.980390   -909.117486
PC10   2989.726589  38974.165957  16728.905687    112.956841
PC11 -14066.026459  23541.838710  -5214.638985   -495.120118
PC12 -20824.647379  14183.569367  12051.535126   -562.272826
PC13  -1910.551740  22151.291313 -35699.257715     40.692778
PC14  -2887.848862  22106.409515 -16805.935637    569.206629
PC16 -19780.429521  35156.849909  11963.716847    143.228516
PC19  -4588.973136 -25946.517835   9176.215768   -336.663368
PC20   8726.588195 -16033.714011  21106.451640   -964.905681
PC21 -17691.777621  -4220.359442 -21145.181347   -100.339876
PC22 -15822.785209 -21280.985526  -8644.630283     -0.057882
PC23  19785.976145  12991.455816  14794.277482   -955.289207
PC24 -20137.431067   9783.487850  16671.965379   -967.931178
PC25   1311.556702  16377.689310  22552.161985   -699.110290
PC26 -27810.507949   -775.107856   2395.950635    701.217577
PC27  20296.563672  -5892.966069 -18250.695703    763.276877
PC28  10761.219151  11954.082938 -22806.187392     96.788679
PC29   4908.540660 -23768.004671  13761.275449    589.600230
PC30  17935.207181 -21043.525584  -3849.843914    501.691757
PC32  17771.980994   4187.916311  21118.822574   -279.727098
PC33   4695.545274  25927.415484  -9220.622140   -306.796533
PC34 -17472.427349  21569.143485   2768.185410   -345.739811
PC35 -10292.102936 -12748.835305  22580.200106    392.778885
PC36   -307.010389 -16351.340508 -22580.176904   -970.270820
PC37  27777.323476   2251.281196  -1205.515540   -925.161018
PC38 -16893.520889  19667.657204 -33271.422799     14.197489
PC39 -22108.010989  35353.099894   5504.392996     -0.171476
PC40  -6389.211402  33134.575725  25395.555433     -1.570396
PC41  15754.046105  21542.049128   8211.597316   -129.799941
PC42  -9436.607421  15119.177303 -21439.486324    -40.332883
PC43  -5518.017757  23976.101310 -13166.302489      6.235757
PC44 -20093.477762   6349.745873  18266.303155      3.849573
PC45 -20098.024301 -12751.823281 -14573.557206    824.060884
PC46  18700.565959 -10586.388000 -17774.805799   -463.537313
PC59 -32277.560415  27158.378187   -308.672050     -0.680039
PC60   7262.055058  41539.378103  -1162.327815     -0.430264
PE01   2316.975156  20091.803258  21620.319415   -526.493342
PE02  -2519.636349 -20160.649560 -21524.754723    315.670085
PE03   3118.873774 -29426.674232   -197.061863   -585.060628
PE04   9605.403506  22225.339966  17038.274571  -1084.185507
PE05  14283.101982 -19469.939992  17120.336700   -157.498239
PE07 -16960.026740  -1628.439296 -24198.982067   -692.760588
PE08  -9658.456620 -22052.035370 -17210.822331   -573.833414
PE09  16819.575960   1628.986681  24306.390422   -608.060319
PE10  21239.558064   4676.506859 -20089.174676   -504.538386
PE11  26764.265106  -3152.506952 -12270.148924   2795.834809
PE12  12775.843632  11472.040614 -24122.295932    -92.781042
PE13 -26493.120251   2703.670892  12918.439303    430.066652
PE14 -10388.207027  27451.646497   3207.317950  -1761.969166
PE15 -12589.210202 -11478.087192  24204.009031    729.583144
PE18  16557.131635 -17510.340463 -13136.952536  -1145.228476
PE19  -4854.770924  29113.979806  -2235.256952  -4928.460130
PE21 -15392.958712   8745.840920  23727.704020   -749.329582
PE24  25638.764368   9321.742582 -11470.165277   -757.245804
PE25  15627.275866  -8502.021043 -23644.924743   -583.092391
PE26 -24279.988010  15556.170948  -6706.447318  -1445.295811
PE27 -25545.130233  -8363.399485  12411.726256   -358.408747
PE30 -19910.856383 -20782.754269  -6937.990686   -719.889170
PE31  20556.227864  20402.638535   6128.284090   -500.925706
PE33  -8659.360562  18810.568936 -21153.629033   -454.194696
PE34   8425.919486 -18798.528507  21236.847351   -488.796838
PE36  24737.949405 -15169.694445   5837.627120   -410.604892
PG01    868.661549  15017.461565 -22165.770184    310.096602
PG02  16512.302050 -16693.291114  13231.295816   -650.170934
PG03   8676.702562  20844.650858 -14197.773969   -321.973079
PG04   -611.466887  25279.577146   7980.544766   -138.622199
PG05   4167.584738 -15526.918306  20943.875709    -91.304592
PG06  25724.587774  -6014.646337  -3065.002870    408.679961
PG07  17305.398908   8623.831623  18830.992536    316.805452
PG08  -5142.424875  25857.324194    270.914999    -78.681259
PG09   8424.798232  18743.055443  16739.290759   -312.899456
PG10 -22082.168909  -9159.659544 -11741.930694   -512.880118
PG11  21649.800069 -12315.791149   9176.222249    -10.454854
PG12  -5099.047895 -20999.104008 -15779.275935   -255.598499
PG13  13212.171668 -21665.498873   7358.957596    359.760825
PG14  21890.756117  10787.854747 -10603.037083   -110.681907
PG15   1998.940532 -26313.019976   -195.562837    -40.725495
PG16 -10868.999995  10225.696796  21694.290183   -518.473662
PG17  14315.901722   3105.681838 -21723.827029    643.651058
PG18 -17250.017737  -8040.379286  18570.352929     95.282324
PG19  16389.700318  -6631.708420 -19994.128541    191.512502
PG20  15355.540534  -7528.692129  20269.827160    498.340794
PG21  -8744.762922  16933.313915 -17563.005961    160.802246
PG22 -16177.565861  10025.421143 -18034.881867    302.433863
PG23 -21097.736111 -16100.252864  -2144.292963    -35.347054
PG24   2627.927580 -17271.320117 -20208.031305    180.889309
PG25 -16649.539863 -20177.946618  -5650.234235    355.971458
PG26 -18425.937471   3028.859806  18915.064002    221.451185
PG27 -12469.152887  19908.898942  11786.380902    220.643972
PG28  19346.572683   3523.668122 -17232.187488    338.762634
PG29  -6321.056804 -19186.917421  17151.668537   -538.981644
PG30  24246.908449   1189.251100  11161.014107   -535.169542
PG31 -25839.612826   7151.876000   -705.210939   -188.043961
PG32 -15420.985878    210.028297 -21458.372450   -192.060353
PJ02 -27247.777085  20700.282749  29658.437278     -2.490485
PJ03 -33803.133241  25315.143035   3596.260072     -0.381652
PJ07 -25404.134896  33660.249143    -21.291401     -0.050889
PR01  10505.017321  20829.282216  10335.002293     12.437021
PR02  11603.978729   3449.948893  22484.673353    525.740939
PR03   6165.192795 -14892.364379  19832.892633     61.163024
PR04  -2590.231620 -24596.586734   6290.936234    152.541306
PR05  -9846.849002 -20944.136309 -10743.103039     97.209318
PR06 -11713.588038  -1965.838330 -22587.736198    -62.211431
PR07  -5816.146908  15477.350036 -19369.016303     38.727361
PR08   2782.881255  24604.261617  -6017.541787    -66.491518
PR09 -24463.630554  -3713.094981   6051.848981     68.922963
PR10 -16348.591963   4816.609363  19005.740786    -84.735137
PR11   2142.268580  11737.174365  22562.671426     31.670684
PR12  19529.619329  11594.384896  11630.416025     19.673543
PR13  24640.783126   4683.495276  -4661.371399    -25.254858
PR14  15019.286463  -5630.882486 -19822.339066     24.675727
PR15  -2986.648328 -12050.131629 -22255.700676     94.409077
PR17  18741.695338 -17266.531015   -204.887266    548.646931
PR18   9326.296334 -17968.135211  15555.538597     35.460257
PR19  -3789.507371 -10239.391836  23045.605721   -198.462580
PR20 -18116.097483   5646.432418  17029.581038    -75.736326
PR21 -18351.041690  17689.490918  -1388.461976   -322.118401
PR23   8622.902643   6171.916917 -23212.292752    -49.804312
PR24  18454.389377  -6425.616742 -16372.669047    106.654076
EOF
